GLOBALSTAR M023         
1 25621U 99004A   24352.44931046  .00000080  00000+0  10258-2 0  9990
2 25621  52.0100 246.8361 0010844  84.5624  86.7805 12.62490072192865
GLOBALSTAR M040         
1 25622U 99004B   24352.10910583  .00000040  00000+0  80316-3 0  9996
2 25622  51.9911 251.7537 0001444  31.5234 109.1864 12.61994811192560
GLOBALSTAR M036         
1 25623U 99004C   24352.08456083 -.00000012  00000+0  10292-2 0  9999
2 25623  51.9991   0.2998 0011045  64.6953 334.3832 11.86583963157342
GLOBALSTAR M038         
1 25624U 99004D   24352.46510154 -.00000046  00000+0  40701-3 0  9998
2 25624  51.9959 234.9078 0002802  47.3074 123.9815 12.32516084179928
GLOBALSTAR M022         
1 25649U 99012A   24351.64065906 -.00000026  00000+0  72909-3 0  9996
2 25649  52.0054  67.1432 0002876 160.7597 347.6715 12.02493352154492
GLOBALSTAR M041         
1 25650U 99012B   24352.12874834 -.00000012  00000+0  94419-3 0  9995
2 25650  52.0033 301.7201 0002299 333.7752  26.2968 11.96663783156734
GLOBALSTAR M046         
1 25651U 99012C   24351.80207582 -.00000132  00000+0 -47438-3 0  9993
2 25651  52.0076  23.4973 0002116 240.5998 291.0844 12.09404186161591
GLOBALSTAR M037         
1 25652U 99012D   24352.40504753 -.00000041  00000+0  34844-3 0  9996
2 25652  52.0024  17.6533 0002206 142.4921 323.4026 12.62429582188360
